{"type": "FeatureCollection", "features": [ {"type": "Feature", "properties": {"norad_id": 34303, "name": "COSMOS 2251 DEB", "group": "cosmos-2251-debris", "lat": 2.4259510555000374, "lon": 112.80513268001545, "alt_km": 736.8552046417553, "timestamp": "2025-12-09T20:37:09.683605+00:00", "meta": {"OBJECT_NAME": "COSMOS 2251 DEB", "OBJECT_ID": "1993-036MZ", "EPOCH": "2025-12-09T13:44:43.304352", "MEAN_MOTION": 14.54381739, "ECCENTRICITY": 0.01349598, "INCLINATION": 74.0057, "RA_OF_ASC_NODE": 294.044, "ARG_OF_PERICENTER": 73.1991, "MEAN_ANOMALY": 43.66, "EPHEMERIS_TYPE": 0, "CLASSIFICATION_TYPE": "U", "NORAD_CAT_ID": 34303, "ELEMENT_SET_NO": 999, "REV_AT_EPOCH": 87916, "BSTAR": 0.0020629416, "MEAN_MOTION_DOT": 9.886e-05, "MEAN_MOTION_DDOT": 0}, "tle": {"line1": "1 34303U 93036MZ  25343.57272343  .00009886  00000+0  20629-2 0  9995", "line2": "2 34303  74.0057 294.0440 0134959  73.1991  43.6600 14.54381739879167"}}, "geometry": {"type": "Point", "coordinates": [112.80513268001545, 2.4259510555000374]}}, {"type": "Feature", "properties": {"norad_id": 34304, "name": "COSMOS 2251 DEB", "group": "cosmos-2251-debris", "lat": 71.78817415913586, "lon": -112.70330703415515, "alt_km": 848.3218193141884, "timestamp": "2025-12-09T20:37:09.683616+00:00", "meta": {"OBJECT_NAME": "COSMOS 2251 DEB", "OBJECT_ID": "1993-036NA", "EPOCH": "2025-12-09T10:16:43.197600", "MEAN_MOTION": 14.37809032, "ECCENTRICITY": 0.01289395, "INCLINATION": 74.0136, "RA_OF_ASC_NODE": 128.7032, "ARG_OF_PERICENTER": 267.1632, "MEAN_ANOMALY": 122.6683, "EPHEMERIS_TYPE": 0, "CLASSIFICATION_TYPE": "U", "NORAD_CAT_ID": 34304, "ELEMENT_SET_NO": 999, "REV_AT_EPOCH": 87249, "BSTAR": 0.0022181447, "MEAN_MOTION_DOT": 7.337e-05, "MEAN_MOTION_DDOT": 0}, "tle": {"line1": "1 34304U 93036NA  25343.42827775  .00007337  00000+0  22181-2 0  9999", "line2": "2 34304  74.0136 128.7032 0128939 267.1632 122.6683 14.37809032872494"}}, "geometry": {"type": "Point", "coordinates": [-112.70330703415515, 71.78817415913586]}}, {"type": "Feature", "properties": {"norad_id": 34307, "name": "COSMOS 2251 DEB", "group": "cosmos-2251-debris", "lat": 73.45510086770852, "lon": 31.98887531322832, "alt_km": 910.9892394486706, "timestamp": "2025-12-09T20:37:09.683627+00:00", "meta": {"OBJECT_NAME": "COSMOS 2251 DEB", "OBJECT_ID": "1993-036ND", "EPOCH": "2025-12-09T08:22:42.189024", "MEAN_MOTION": 13.54314122, "ECCENTRICITY": 0.03921698, "INCLINATION": 74.0531, "RA_OF_ASC_NODE": 318.5561, "ARG_OF_PERICENTER": 150.2438, "MEAN_ANOMALY": 333.519, "EPHEMERIS_TYPE": 0, "CLASSIFICATION_TYPE": "U", "NORAD_CAT_ID": 34307, "ELEMENT_SET_NO": 999, "REV_AT_EPOCH": 82816, "BSTAR": 0.00091808531, "MEAN_MOTION_DOT": 1.002e-05, "MEAN_MOTION_DDOT": 0}, "tle": {"line1": "1 34307U 93036ND  25343.34909941  .00001002  00000+0  91809-3 0  9996", "line2": "2 34307  74.0531 318.5561 0392169 150.2438 333.5190 13.54314122828166"}}, "geometry": {"type": "Point", "coordinates": [31.98887531322832, 73.45510086770852]}}, {"type": "Feature", "properties": {"norad_id": 34313, "name": "COSMOS 2251 DEB", "group": "cosmos-2251-debris", "lat": -25.446014166003597, "lon": -56.31796997955895, "alt_km": 519.0632058002366, "timestamp": "2025-12-09T20:37:09.683637+00:00", "meta": {"OBJECT_NAME": "COSMOS 2251 DEB", "OBJECT_ID": "1993-036NK", "EPOCH": "2025-12-09T08:05:04.426656", "MEAN_MOTION": 15.18202423, "ECCENTRICITY": 0.00114496, "INCLINATION": 73.9729, "RA_OF_ASC_NODE": 312.639, "ARG_OF_PERICENTER": 85.6704, "MEAN_ANOMALY": 274.58, "EPHEMERIS_TYPE": 0, "CLASSIFICATION_TYPE": "U", "NORAD_CAT_ID": 34313, "ELEMENT_SET_NO": 999, "REV_AT_EPOCH": 89013, "BSTAR": 0.0052824209, "MEAN_MOTION_DOT": 0.00109858, "MEAN_MOTION_DDOT": 0}, "tle": {"line1": "1 34313U 93036NK  25343.33685679  .00109858  00000+0  52824-2 0  9992", "line2": "2 34313  73.9729 312.6390 0011449  85.6704 274.5800 15.18202423890131"}}, "geometry": {"type": "Point", "coordinates": [-56.31796997955895, -25.446014166003597]}}, {"type": "Feature", "properties": {"norad_id": 34314, "name": "COSMOS 2251 DEB", "group": "cosmos-2251-debris", "lat": -34.9489737463017, "lon": -58.03809840167125, "alt_km": 847.493853743721, "timestamp": "2025-12-09T20:37:09.683648+00:00", "meta": {"OBJECT_NAME": "COSMOS 2251 DEB", "OBJECT_ID": "1993-036NL", "EPOCH": "2025-12-09T09:30:45.122112", "MEAN_MOTION": 14.17412467, "ECCENTRICITY": 0.01027223, "INCLINATION": 74.007, "RA_OF_ASC_NODE": 314.3498, "ARG_OF_PERICENTER": 60.8511, "MEAN_ANOMALY": 63.3245, "EPHEMERIS_TYPE": 0, "CLASSIFICATION_TYPE": "U", "NORAD_CAT_ID": 34314, "ELEMENT_SET_NO": 999, "REV_AT_EPOCH": 86610, "BSTAR": 0.0010295851, "MEAN_MOTION_DOT": 2.172e-05, "MEAN_MOTION_DDOT": 0}, "tle": {"line1": "1 34314U 93036NL  25343.39635558  .00002172  00000+0  10296-2 0  9998", "line2": "2 34314  74.0070 314.3498 0102722  60.8511  63.3245 14.17412467866103"}}, "geometry": {"type": "Point", "coordinates": [-58.03809840167125, -34.9489737463017]}}, {"type": "Feature", "properties": {"norad_id": 34316, "name": "COSMOS 2251 DEB", "group": "cosmos-2251-debris", "lat": 67.51974260361773, "lon": 118.99792032293476, "alt_km": 581.2874541343335, "timestamp": "2025-12-09T20:37:09.683658+00:00", "meta": {"OBJECT_NAME": "COSMOS 2251 DEB", "OBJECT_ID": "1993-036NN", "EPOCH": "2025-12-09T00:49:51.628512", "MEAN_MOTION": 14.91651734, "ECCENTRICITY": 0.00080663, "INCLINATION": 74.066, "RA_OF_ASC_NODE": 344.3098, "ARG_OF_PERICENTER": 70.6253, "MEAN_ANOMALY": 289.5801, "EPHEMERIS_TYPE": 0, "CLASSIFICATION_TYPE": "U", "NORAD_CAT_ID": 34316, "ELEMENT_SET_NO": 999, "REV_AT_EPOCH": 89154, "BSTAR": 0.0018713772, "MEAN_MOTION_DOT": 0.00018835, "MEAN_MOTION_DDOT": 0}, "tle": {"line1": "1 34316U 93036NN  25343.03462533  .00018835  00000+0  18714-2 0  9998", "line2": "2 34316  74.0660 344.3098 0008066  70.6253 289.5801 14.91651734891547"}}, "geometry": {"type": "Point", "coordinates": [118.99792032293476, 67.51974260361773]}}, {"type": "Feature", "properties": {"norad_id": 34317, "name": "COSMOS 2251 DEB", "group": "cosmos-2251-debris", "lat": 73.63112233862036, "lon": 119.51234708308294, "alt_km": 867.0628885830292, "timestamp": "2025-12-09T20:37:09.683669+00:00", "meta": {"OBJECT_NAME": "COSMOS 2251 DEB", "OBJECT_ID": "1993-036NP", "EPOCH": "2025-12-09T06:26:27.555072", "MEAN_MOTION": 13.65117468, "ECCENTRICITY": 0.0336407, "INCLINATION": 73.9248, "RA_OF_ASC_NODE": 41.4726, "ARG_OF_PERICENTER": 31.4075, "MEAN_ANOMALY": 30.1575, "EPHEMERIS_TYPE": 0, "CLASSIFICATION_TYPE": "U", "NORAD_CAT_ID": 34317, "ELEMENT_SET_NO": 999, "REV_AT_EPOCH": 83572, "BSTAR": 0.00059185, "MEAN_MOTION_DOT": 6.84e-06, "MEAN_MOTION_DDOT": 0}, "tle": {"line1": "1 34317U 93036NP  25343.26837448  .00000684  00000+0  59185-3 0  9996", "line2": "2 34317  73.9248  41.4726 0336407  31.4075  30.1575 13.65117468835728"}}, "geometry": {"type": "Point", "coordinates": [119.51234708308294, 73.63112233862036]}}, {"type": "Feature", "properties": {"norad_id": 34321, "name": "COSMOS 2251 DEB", "group": "cosmos-2251-debris", "lat": -31.28795567586341, "lon": 151.75030505669847, "alt_km": 722.1481628286856, "timestamp": "2025-12-09T20:37:09.683679+00:00", "meta": {"OBJECT_NAME": "COSMOS 2251 DEB", "OBJECT_ID": "1993-036NT", "EPOCH": "2025-12-09T12:46:06.155616", "MEAN_MOTION": 14.50034515, "ECCENTRICITY": 0.00157479, "INCLINATION": 74.0281, "RA_OF_ASC_NODE": 162.3882, "ARG_OF_PERICENTER": 292.1124, "MEAN_ANOMALY": 128.2512, "EPHEMERIS_TYPE": 0, "CLASSIFICATION_TYPE": "U", "NORAD_CAT_ID": 34321, "ELEMENT_SET_NO": 999, "REV_AT_EPOCH": 88440, "BSTAR": 0.00092586337, "MEAN_MOTION_DOT": 3.568e-05, "MEAN_MOTION_DDOT": 0}, "tle": {"line1": "1 34321U 93036NT  25343.53201569  .00003568  00000+0  92586-3 0  9996", "line2": "2 34321  74.0281 162.3882 0015747 292.1124 128.2512 14.50034515884405"}}, "geometry": {"type": "Point", "coordinates": [151.75030505669847, -31.28795567586341]}}, {"type": "Feature", "properties": {"norad_id": 34323, "name": "COSMOS 2251 DEB", "group": "cosmos-2251-debris", "lat": 73.94231769092151, "lon": -140.6882390837561, "alt_km": 634.9524517103682, "timestamp": "2025-12-09T20:37:09.683690+00:00", "meta": {"OBJECT_NAME": "COSMOS 2251 DEB", "OBJECT_ID": "1993-036NV", "EPOCH": "2025-12-09T12:22:06.348000", "MEAN_MOTION": 14.74246937, "ECCENTRICITY": 0.00597885, "INCLINATION": 73.9532, "RA_OF_ASC_NODE": 129.441, "ARG_OF_PERICENTER": 174.263, "MEAN_ANOMALY": 252.7259, "EPHEMERIS_TYPE": 0, "CLASSIFICATION_TYPE": "U", "NORAD_CAT_ID": 34323, "ELEMENT_SET_NO": 999, "REV_AT_EPOCH": 88392, "BSTAR": 0.0039837475, "MEAN_MOTION_DOT": 0.00027179, "MEAN_MOTION_DDOT": 0}, "tle": {"line1": "1 34323U 93036NV  25343.51535125  .00027179  00000+0  39837-2 0  9997", "line2": "2 34323  73.9532 129.4410 0059788 174.2630 252.7259 14.74246937883926"}}, "geometry": {"type": "Point", "coordinates": [-140.6882390837561, 73.94231769092151]}}, {"type": "Feature", "properties": {"norad_id": 34325, "name": "COSMOS 2251 DEB", "group": "cosmos-2251-debris", "lat": -45.62302348101195, "lon": -179.317613742627, "alt_km": 897.2633890955385, "timestamp": "2025-12-09T20:37:09.683700+00:00", "meta": {"OBJECT_NAME": "COSMOS 2251 DEB", "OBJECT_ID": "1993-036NX", "EPOCH": "2025-12-09T14:09:29.468160", "MEAN_MOTION": 14.0444324, "ECCENTRICITY": 0.01925374, "INCLINATION": 73.8716, "RA_OF_ASC_NODE": 198.357, "ARG_OF_PERICENTER": 216.3139, "MEAN_ANOMALY": 172.8633, "EPHEMERIS_TYPE": 0, "CLASSIFICATION_TYPE": "U", "NORAD_CAT_ID": 34325, "ELEMENT_SET_NO": 999, "REV_AT_EPOCH": 85471, "BSTAR": 0.0024905412, "MEAN_MOTION_DOT": 4.659e-05, "MEAN_MOTION_DDOT": 0}, "tle": {"line1": "1 34325U 93036NX  25343.58992440  .00004659  00000+0  24905-2 0  9991", "line2": "2 34325  73.8716 198.3570 0192537 216.3139 172.8633 14.04443240854717"}}, "geometry": {"type": "Point", "coordinates": [-179.317613742627, -45.62302348101195]}}]}